{"fetched_at":"2026-03-29T16:36:15Z","count":15609,"tles":[{"name":"STARLINK-5237","line1":"1 54196U 22141AR  26087.79412406 -.00002158  00000+0 -11762-3 0  9998","line2":"2 54196  53.2178 268.2416 0001195  91.5342 268.5787 15.08824504188885","category":"Starlink"}]}