{
  "norad_id": 54196,
  "name": "STARLINK-5237",
  "history": [
    {
      "epoch": "2026-03-28T19:03:32.318784Z",
      "apogee_km": 540.6174468088657,
      "perigee_km": 538.9640620755536,
      "latitude_deg": -1.8813729071527545e-06,
      "longitude_deg": 156.14747672567216,
      "height_km": 540.7088581155273,
      "semi_major_axis_km": 6917.927754442209,
      "eccentricity": 0.0001195,
      "inclination_deg": 53.2178,
      "raan_deg": 268.2416,
      "arg_perigee_deg": 91.5342,
      "mean_anomaly_deg": 268.5787,
      "mean_motion_rev_day": 15.08824504
    }
  ]
}